ONEWEB-0113             
1 48050U 21025J   21182.43416946 -.00347126  00000-0 -48642+0 0  9996
2 48050  87.8520 320.4084 0008071 294.5407  65.4907 13.59868993 15690
ONEWEB-0112             
1 48051U 21025K   21182.25002315  .00050585  00000-0  75460-1 0  9996
2 48051  87.8817 320.4940 0005092 321.0797  70.0373 13.52984780 15694
ONEWEB-0156             
1 48052U 21025L   21182.58334491  .00000014  00000-0  00000+0 0  9994
2 48052  87.8715 320.3800 0008348 306.3849 267.9954 13.56272595 15709
ONEWEB-0161             
1 48053U 21025M   21182.58334491  .00000014  00000-0  00000+0 0  9995
2 48053  87.9479 320.3991 0006666 322.9838  96.4226 13.53666582 15653
ONEWEB-0158             
1 48054U 21025N   21182.58334491  .00000015  00000-0  00000+0 0  9997
2 48054  87.8662 320.3437 0005667 321.2355 302.6892 13.65475081 15755
ONEWEB-0157             
1 48055U 21025P   21182.58334491  .00000014  00000-0  00000+0 0  9997
2 48055  87.8595 320.3908 0005472 294.5974 347.8025 13.53001865 15714
ONEWEB-0162             
1 48056U 21025Q   21182.58334491  .00000014  00000-0  00000+0 0  9998
2 48056  87.8333 320.2362 0006506 303.6975 258.4045 13.58918653 15648
ONEWEB-0155             
1 48057U 21025R   21182.58334491  .00000015  00000-0  00000+0 0  9990
2 48057  87.9581 320.4278 0007702 298.0909  12.4591 13.65036537 15819
ONEWEB-0149             
1 48058U 21025S   21182.58334491  .00000014  00000-0  00000+0 0  9990
2 48058  87.8663 320.3645 0007416 332.1432  75.5261 13.47532827 15648
ONEWEB-0148             
1 48059U 21025T   21182.58334491  .00000014  00000-0  00000+0 0  9991
2 48059  87.8732 320.3660 0007875 298.8198 122.1779 13.56430714 15734
ONEWEB-0160             
1 48060U 21025U   21182.50001157  .00000015  00000-0  00000+0 0  9996
2 48060  87.8240 320.2820 0004506 330.4835 223.4353 13.61146040 15663
ONEWEB-0163             
1 48061U 21025V   21182.58334491  .00000015  00000-0  00000+0 0  9995
2 48061  87.8792 320.4066 0009435 290.8523  95.1336 13.63517186 15805
ONEWEB-0159             
1 48062U 21025W   21182.58334491  .00000014  00000-0  00000+0 0  9995
2 48062  87.8459 320.3725 0003871 284.5002  87.2980 13.58357149 15731
ONEWEB-0164             
1 48063U 21025X   21182.58334491  .00000014  00000-0  00000+0 0  9996
2 48063  87.8489 320.3003 0007910 299.9081 284.7230 13.55345838 15707
ONEWEB-0167             
1 48064U 21025Y   21182.58334491  .00000015  00000-0  00000+0 0  9998
2 48064  87.8450 320.3127 0006710 319.5231 352.3221 13.62586732 15683
ONEWEB-0166             
1 48065U 21025Z   21182.58334491  .00000014  00000-0  00000+0 0  9998
2 48065  87.8733 320.4493 0008581 296.3759 301.7955 13.55541154 15784
ONEWEB-0151             
1 48066U 21025AA  21182.58334491  .00000014  00000-0  00000+0 0  9999
2 48066  87.8571 320.4069 0005471 283.3321 237.9424 13.59139765 15731
ONEWEB-0170             
1 48067U 21025AB  21182.58334491  .00000014  00000-0  00000+0 0  9990
2 48067  87.8866 320.3650 0006846 297.5692 214.7663 13.57099168 15681
ONEWEB-0168             
1 48068U 21025AC  21182.58334491  .00000015  00000-0  00000+0 0  9992
2 48068  87.7942 320.1959 0005517 319.7244  97.6170 13.69470317 15650
ONEWEB-0173             
1 48069U 21025AD  21182.58334491 -.00714674  00000-0 -57610+0 0  9997
2 48069  88.0035 320.2487 0003785 304.7058 251.1388 13.93183350 15829
ONEWEB-0171             
1 48070U 21025AE  21182.58334491  .00000014  00000-0  00000+0 0  9994
2 48070  87.8683 320.3791 0008248 311.0678  30.9338 13.54133734 15752
ONEWEB-0172             
1 48071U 21025AF  21181.91667824 -.00018900  00000-0 -65230-2 0  9994
2 48071  87.8336 319.7097 0003925 281.3588 109.9787 14.36108405 15826
ONEWEB-0174             
1 48072U 21025AG  21182.25002315  .00054930  00000-0  51465-1 0  9996
2 48072  87.8798 320.3475 0008960 273.8395 153.3753 13.81238703 15823
ONEWEB-0175             
1 48073U 21025AH  21182.58334491  .00000014  00000-0  00000+0 0  9997
2 48073  87.8957 320.3813 0007434 326.2179 247.1655 13.39914146 15632
ONEWEB-0177             
1 48074U 21025AJ  21182.58334491  .00000015  00000-0  00000+0 0  9999
2 48074  87.8924 320.4441 0008934 273.2500  73.3570 13.64162664 15802
ONEWEB-0178             
1 48075U 21025AK  21182.58334491  .00000014  00000-0  00000+0 0  9999
2 48075  87.9095 320.4601 0008226 279.7688 210.1959 13.62884659 15853
ONEWEB-0108             
1 48076U 21025AL  21182.58334491  .00000014  00000-0  00000+0 0  9990
2 48076  87.8597 320.4292 0008136 286.0314 179.2594 13.59951278 15783
ONEWEB-0169             
1 48077U 21025AM  21182.58334491  .00000014  00000-0  00000+0 0  9991
2 48077  87.8451 320.3272 0008848 301.0614 349.6450 13.59101339 15656
ONEWEB-0176             
1 48210U 21031A   21182.16668981 -.00913569  00000-0 -37676+0 0  9994
2 48210  87.6244 291.7459 0009958  61.4212 255.6883 14.29880164 11206
ONEWEB-0184             
1 48211U 21031B   21182.50001157 -.00754182  00000-0 -31653+0 0  9992
2 48211  87.6221 291.6377 0010902  41.2968  73.7744 14.28883547  9934
ONEWEB-0179             
1 48212U 21031C   21182.50001157 -.00042177  00000-0 -15114-1 0  9993
2 48212  87.6552 291.6692 0012087  62.0101 304.0812 14.34337834  9989
ONEWEB-0180             
1 48213U 21031D   21182.50001157 -.01159476  00000-0 -53457+0 0  9996
2 48213  87.5554 291.6820 0009512  51.4110  36.9382 14.24325626  9905
ONEWEB-0218             
1 48214U 21031E   21182.50001157 -.01002840  00000-0 -35076+0 0  9996
2 48214  87.6858 291.6608 0012163  29.6102 147.3501 14.38528440 10009
ONEWEB-0209             
1 48215U 21031F   21182.50001157 -.00947266  00000-0 -33417+0 0  9993
2 48215  87.6568 291.6504 0010807  46.5892 128.6242 14.37924415  9980
ONEWEB-0198             
1 48216U 21031G   21182.50001157 -.00781608  00000-0 -20468+0 0  9992
2 48216  87.6450 291.5550 0006983  48.4679 222.2207 14.52349318  9976
ONEWEB-0189             
1 48217U 21031H   21182.50001157 -.01198638  00000-0 -56548+0 0  9997
2 48217  87.5807 291.6730 0012457  42.4750  47.6099 14.23209637  9931
ONEWEB-0196             
1 48218U 21031J   21182.50001157 -.01025786  00000-0 -47885+0 0  9995
2 48218  87.5532 291.5984 0009369  54.6314  17.1519 14.23806648  9907
ONEWEB-0183             
1 48219U 21031K   21181.91667824 -.00928875  00000-0 -35233+0 0  9993
2 48219  87.6200 291.7984 0008227  59.3720 247.0762 14.34217601  3521
ONEWEB-0185             
1 48220U 21031L   21182.16668981 -.01253113  00000-0 -59546+0 0  9998
2 48220  87.5789 291.7718 0010307  38.7993 342.1200 14.22996273  9890
ONEWEB-0187             
1 48221U 21031M   21182.16668981 -.00968942  00000-0 -40623+0 0  9997
2 48221  87.5886 291.6970 0011338  55.5288 267.3094 14.29206122  9889
ONEWEB-0192             
1 48222U 21031N   21182.50001157 -.01171788  00000-0 -61519+0 0  9994
2 48222  87.5410 291.5841 0009214  46.1617  27.2781 14.17473066  9898
ONEWEB-0219             
1 48223U 21031P   21182.50001157 -.01000351  00000-0 -34844+0 0  9993
2 48223  87.6886 291.6651 0011443  28.1495 170.7393 14.38732975 10006
ONEWEB-0202             
1 48224U 21031Q   21182.16668981 -.00893592  00000-0 -31370+0 0  9997
2 48224  87.6526 291.7552 0012448  41.8926 316.7728 14.37980499  9946
ONEWEB-0204             
1 48225U 21031R   21182.50001157 -.01204575  00000-0 -53993+0 0  9995
2 48225  87.6094 291.6527 0008648  49.0347  56.2187 14.25931920  9950
ONEWEB-0205             
1 48226U 21031S   21182.50001157 -.01166626  00000-0 -52112+0 0  9992
2 48226  87.5887 291.6513 0012750  46.3694 258.8015 14.25980994  9921
ONEWEB-0206             
1 48227U 21031T   21182.16668981 -.01291990  00000-0 -64445+0 0  9994
2 48227  87.5492 291.7245 0010092  56.5245 182.2254 14.20539140  9854
ONEWEB-0182             
1 48228U 21031U   21182.50001157 -.00989741  00000-0 -28710+0 0  9991
2 48228  87.7459 291.6150 0009131  52.2525 248.6345 14.47722760 10019
ONEWEB-0186             
1 48229U 21031V   21182.50001157 -.00986930  00000-0 -32992+0 0  9996
2 48229  87.6911 291.6317 0008605  34.7651 318.3478 14.40755457  9996
ONEWEB-0181             
1 48230U 21031W   21182.16668981 -.01229942  00000-0 -57569+0 0  9995
2 48230  87.5909 291.8368 0011076  50.9197  31.1791 14.23721687  9866
ONEWEB-0188             
1 48231U 21031X   21182.50001157 -.01216038  00000-0 -71606+0 0  9990
2 48231  87.5254 291.5488 0008847  46.7262  50.2474 14.11390405  9887
ONEWEB-0220             
1 48232U 21031Y   21182.50001157 -.00929966  00000-0 -29984+0 0  9993
2 48232  87.6808 291.6351 0011990  29.9946 323.3566 14.42337133  9990
ONEWEB-0165             
1 48233U 21031Z   21182.50001157 -.00933297  00000-0 -32890+0 0  9996
2 48233  87.6574 291.6686 0011547  44.5990 241.1871 14.37925462  9989
ONEWEB-0199             
1 48234U 21031AA  21182.50001157 -.01057847  00000-0 -45029+0 0  9994
2 48234  87.6188 291.6278 0008409  48.8556 314.8621 14.28731624  9948
ONEWEB-0203             
1 48235U 21031AB  21182.50001157 -.00991281  00000-0 -46504+0 0  9992
2 48235  87.5787 291.6478 0012583  46.3137  70.9029 14.23412739  9918
ONEWEB-0197             
1 48236U 21031AC  21182.50001157 -.01169949  00000-0 -58731+0 0  9997
2 48236  87.5506 291.5910 0010192  61.2682 103.3859 14.19855563  9893
ONEWEB-0194             
1 48237U 21031AD  21182.16668981 -.00882275  00000-0 -30990+0 0  9994
2 48237  87.6513 291.7546 0009638  55.3291  91.7242 14.37933134  9924
ONEWEB-0193             
1 48238U 21031AE  21182.50001157 -.00983510  00000-0 -38933+0 0  9998
2 48238  87.6157 291.6607 0009448  35.1096 210.5858 14.32215975  9930
ONEWEB-0191             
1 48239U 21031AF  21182.50001157 -.01206919  00000-0 -68006+0 0  9995
2 48239  87.5357 291.5863 0010937  55.1774  30.6408 14.13751162  9894
ONEWEB-0195             
1 48240U 21031AG  21182.50001157 -.01170373  00000-0 -62206+0 0  9997
2 48240  87.5385 291.5735 0008210  41.4301 241.6894 14.16813045  9884
